CUBEBUG-2 (LO-74)       
1 39440U 13066AA  26176.83815360  .00004524  00000+0  41819-3 0  9992
2 39440  97.8903 125.8528 0057564   0.5259 359.6011 14.93829236678280
FUNCUBE-1 (AO-73)       
1 39444U 13066AE  26176.87279233  .00008216  00000+0  50757-3 0  9996
2 39444  97.8271 148.5000 0036539 171.4630 188.7228 15.09583656680970
UWE-3                   
1 39446U 13066AG  26176.83787144  .00004431  00000+0  38106-3 0  9998
2 39446  97.8708 132.9703 0046808 291.8607  67.7640 14.97092153678878
UNISAT-6                
1 40012U 14033C   26176.67195425  .00002557  00000+0  27740-3 0  9990
2 40012  97.7883 329.2349 0045787  42.0208 318.4506 14.88284498647426
DUCHIFAT-1              
1 40021U 14033M   26176.71541039  .00141113  00000+0  13462-2 0  9998
2 40021  98.0450 237.0839 0001518 101.6443 258.4986 15.66313669657085
QB50P1                  
1 40025U 14033R   26176.84938076  .00010070  00000+0  49283-3 0  9995
2 40025  98.0964 188.6029 0008695 184.5667 175.5487 15.18382181654345
LILACSAT-2              
1 40908U 15049K   26176.84985041  .00020233  00000+0  34078-3 0  9995
2 40908  97.4640 214.0215 0006309 206.2175 153.8759 15.51716024597099
FOX-1A (AO-85)          
1 40967U 15058D   26176.60265426  .00002302  00000+0  21247-3 0  9993
2 40967  64.7749 252.8304 0130949  53.3196 307.9866 14.91002790114820
CAS-2T & KS-1Q          
1 41847U 16066G   26176.69031690  .00001601  00000+0  23081-3 0  9993
2 41847  98.3821 252.3295 0342905 103.7696 260.1902 14.44720464506029
RADFXSAT (FOX-1B)       
1 43017U 17073E   26176.60840683  .00008156  00000+0  35687-3 0  9991
2 43017  97.4699  43.6511 0148630 299.9037  58.7499 15.12826697466669
DIWATA-2B               
1 43678U 18084H   26176.83919052  .00002550  00000+0  20738-3 0  9992
2 43678  98.1205  13.4248 0012987 142.9555 217.2566 15.00488201417511
ES'HAIL 2               
1 43700U 18090A   26176.67268748  .00000155  00000+0  00000+0 0  9991
2 43700   0.0185 341.0996 0002207 148.5722  52.1049  1.00274106 27766
FOX-1CLIFF (AO-95)      
1 43770U 18099N   26176.66330514  .00013967  00000+0  53097-3 0  9990
2 43770  97.4386 236.8787 0007199 324.2566  35.8190 15.26877140414517
ITASAT                  
1 43786U 18099AE  26176.71656380  .00007572  00000+0  36279-3 0  9993
2 43786  97.4030 228.0580 0011253 328.7012  31.3551 15.19154130414202
JY1SAT (JO-97)          
1 43803U 18099AX  26176.70757947  .00021360  00000+0  65238-3 0  9991
2 43803  97.4133 239.5721 0004971 224.1915 135.8931 15.33907145414930
UWE-4                   
1 43880U 18111E   26176.75685352  .00040469  00000+0  81038-3 0  9993
2 43880  97.5842 105.5453 0004388 298.2824  61.7982 15.46632165412101
TIANYAN 01              
1 44881U 19093C   26176.86266834  .00000113  00000+0  18830-4 0  9990
2 44881  97.7532 248.8834 0014973  61.0477 299.2238 14.86529062352701
RS-44 & BREEZE-KM R/B   
1 44909U 19096E   26176.83967086  .00000022  00000+0  34149-4 0  9998
2 44909  82.5225 333.9544 0218450 124.0164 238.1898 12.79748974303453
SALSAT                  
1 46495U 20068K   26176.71389502  .00008822  00000+0  30719-3 0  9993
2 46495  97.8851 180.2981 0007800 271.7296  88.3050 15.29911798316664
XW-3 (CAS-9)            
1 50466U 21131B   26176.87082764  .00000465  00000+0  15726-3 0  9991
2 50466  98.4981 269.2136 0005361  76.5332 283.6454 14.41364504236366
GREENCUBE (IO-117)      
1 53109U 22080E   26176.74430124 -.00000003  00000+0  00000+0 0  9999
2 53109  70.1444 295.2691 0008975 287.7502  72.2178  6.42583224 92615
UMKA 1 (RS40S)          
1 57172U 23091G   26176.84455604  .00007431  00000+0  33819-3 0  9996
2 57172  97.5052 235.5085 0014303  90.9703 269.3171 15.20910648165321
CUBESX-HSE 3 (RS42S)    
1 57178U 23091N   26176.86481690  .00016185  00000+0  53437-3 0  9992
2 57178  97.5094 242.5620 0011593  67.6729 292.5740 15.31420364165753
MONITOR-3 (RS58S)       
1 57180U 23091Q   26176.84306352  .00012582  00000+0  46191-3 0  9990
2 57180  97.5087 240.3529 0012812  74.0876 286.1774 15.28005767165615
MONITOR-4 (RS57S)       
1 57182U 23091S   26176.82163873  .00011925  00000+0  43686-3 0  9995
2 57182  97.5080 240.3029 0012816  74.3769 285.8884 15.28089775165612
MONITOR-2 (RS39S)       
1 57184U 23091U   26176.81084091  .00005235  00000+0  25306-3 0  9996
2 57184  97.5074 235.0379 0012765  85.0899 275.1793 15.18984502165265
SVYATOBOR 1 (RS60S)     
1 57187U 23091X   26176.84220891  .00010391  00000+0  39714-3 0  9999
2 57187  97.5092 240.7072 0010571  68.3707 291.8656 15.26752355165638
VIZARD-METEO (RS38S)    
1 57189U 23091Z   26176.81125880  .00020243  00000+0  57332-3 0  9993
2 57189  97.5094 246.4700 0007641  51.2377 308.9548 15.36282701166018
POLYTECH-UNIVERSE 3 (R*)
1 57191U 23091AB  26176.83689287  .00006173  00000+0  29553-3 0  9994
2 57191  97.5049 234.5681 0017087  99.4632 260.8535 15.19190077165263
UTMN 2 (RS27S)          
1 57203U 23091AP  26176.81237319  .00015081  00000+0  48595-3 0  9996
2 57203  97.5090 244.1534 0008703  57.8410 302.3674 15.32248056165862
